start=new Date('2022-09-10T00:00:00.000Z').valueOf();
sats=[{"BSTAR":"0.00010210000000","ELEMENT_SET_NO":"999","OBJECT_TYPE":"PAYLOAD","OBJECT_NAME":"STARLINK-2089","APOAPSIS":"548.253","TLE_LINE1":"1 47372U 21005Z   22252.71223814  .00001240  00000-0  10210-3 0  9996","TLE_LINE2":"2 47372  53.0575  29.5183 0001515  83.9354 276.1808 15.06403286 90637","PERIOD":"95.592","SEMIMAJOR_AXIS":"6925.338","REV_AT_EPOCH":"9063","MEAN_MOTION_DOT":"0.00001240","NORAD_CAT_ID":"47372","MEAN_MOTION":"15.06403286","DECAY_DATE":null,"MEAN_ELEMENT_THEORY":"SGP4","ARG_OF_PERICENTER":"83.9354","RA_OF_ASC_NODE":"29.5183","RCS_SIZE":"LARGE","TIME_SYSTEM":"UTC","EPOCH":"2022-09-09T17:05:37.375296","PERIAPSIS":"546.154","CLASSIFICATION_TYPE":"U","LAUNCH_DATE":"2021-01-20","EPHEMERIS_TYPE":"0","INCLINATION":"53.0575","SITE":"AFETR","REF_FRAME":"TEME","OBJECT_ID":"2021-005Z","MEAN_ANOMALY":"276.1808","CENTER_NAME":"EARTH","FILE":"3565505","MEAN_MOTION_DDOT":"0.0000000000000","ECCENTRICITY":"0.00015150","COUNTRY_CODE":"US","GP_ID":"212167231"},{"LAUNCH_DATE":"2021-01-20","INCLINATION":"53.0569","EPHEMERIS_TYPE":"0","SITE":"AFETR","REF_FRAME":"TEME","OBJECT_ID":"2021-005AA","EPOCH":"2022-09-09T17:07:33.679200","PERIAPSIS":"546.345","CLASSIFICATION_TYPE":"U","MEAN_MOTION_DDOT":"0.0000000000000","ECCENTRICITY":"0.00013020","COUNTRY_CODE":"US","GP_ID":"212165982","MEAN_ANOMALY":"287.6275","CENTER_NAME":"EARTH","FILE":"3565505","APOAPSIS":"548.148","BSTAR":"0.00009621800000","ELEMENT_SET_NO":"999","OBJECT_TYPE":"PAYLOAD","OBJECT_NAME":"STARLINK-2092","MEAN_MOTION":"15.06389316","MEAN_ELEMENT_THEORY":"SGP4","DECAY_DATE":null,"ARG_OF_PERICENTER":"72.4856","RA_OF_ASC_NODE":"34.1813","RCS_SIZE":"LARGE","TIME_SYSTEM":"UTC","TLE_LINE1":"1 47373U 21005AA  22252.71358425  .00001152  00000-0  96218-4 0  9999","PERIOD":"95.593","TLE_LINE2":"2 47373  53.0569  34.1813 0001302  72.4856 287.6275 15.06389316 90572","SEMIMAJOR_AXIS":"6925.381","REV_AT_EPOCH":"9057","MEAN_MOTION_DOT":"0.00001152","NORAD_CAT_ID":"47373"},{"APOAPSIS":"548.228","BSTAR":"0.00031853000000","ELEMENT_SET_NO":"999","OBJECT_NAME":"STARLINK-2093","OBJECT_TYPE":"PAYLOAD","DECAY_DATE":null,"MEAN_ELEMENT_THEORY":"SGP4","MEAN_MOTION":"15.06406952","TIME_SYSTEM":"UTC","ARG_OF_PERICENTER":"86.4519","RCS_SIZE":"LARGE","RA_OF_ASC_NODE":"34.3772","TLE_LINE1":"1 47374U 21005AB  22252.66841425  .00004467  00000-0  31853-3 0  9996","TLE_LINE2":"2 47374  53.0559  34.3772 0001496  86.4519 273.6641 15.06406952 90560","PERIOD":"95.592","MEAN_MOTION_DOT":"0.00004467","NORAD_CAT_ID":"47374","SEMIMAJOR_AXIS":"6925.327","REV_AT_EPOCH":"9056","SITE":"AFETR","REF_FRAME":"TEME","LAUNCH_DATE":"2021-01-20","INCLINATION":"53.0559","EPHEMERIS_TYPE":"0","OBJECT_ID":"2021-005AB","EPOCH":"2022-09-09T16:02:30.991200","CLASSIFICATION_TYPE":"U","PERIAPSIS":"546.156","ECCENTRICITY":"0.00014960","COUNTRY_CODE":"US","MEAN_MOTION_DDOT":"0.0000000000000","GP_ID":"212166232","MEAN_ANOMALY":"273.6641","FILE":"3565505","CENTER_NAME":"EARTH"},{"APOAPSIS":"548.253","OBJECT_TYPE":"PAYLOAD","OBJECT_NAME":"STARLINK-2094","ELEMENT_SET_NO":"999","BSTAR":"0.00017884000000","ARG_OF_PERICENTER":"92.2410","RA_OF_ASC_NODE":"33.7711","RCS_SIZE":"LARGE","TIME_SYSTEM":"UTC","MEAN_MOTION":"15.06405526","MEAN_ELEMENT_THEORY":"SGP4","DECAY_DATE":null,"REV_AT_EPOCH":"9058","SEMIMAJOR_AXIS":"6925.332","MEAN_MOTION_DOT":"0.00002384","NORAD_CAT_ID":"47375","TLE_LINE1":"1 47375U 21005AC  22252.80572682  .00002384  00000-0  17884-3 0  9993","TLE_LINE2":"2 47375  53.0562  33.7711 0001526  92.2410 267.8754 15.06405526 90588","PERIOD":"95.592","OBJECT_ID":"2021-005AC","LAUNCH_DATE":"2021-01-20","EPHEMERIS_TYPE":"0","INCLINATION":"53.0562","REF_FRAME":"TEME","SITE":"AFETR","PERIAPSIS":"546.140","CLASSIFICATION_TYPE":"U","EPOCH":"2022-09-09T19:20:14.797248","GP_ID":"212166983","MEAN_MOTION_DDOT":"0.0000000000000","ECCENTRICITY":"0.00015260","COUNTRY_CODE":"US","FILE":"3565505","CENTER_NAME":"EARTH","MEAN_ANOMALY":"267.8754"},{"EPOCH":"2022-09-09T16:14:28.629600","PERIAPSIS":"546.384","CLASSIFICATION_TYPE":"U","LAUNCH_DATE":"2021-01-20","EPHEMERIS_TYPE":"0","INCLINATION":"53.0568","REF_FRAME":"TEME","SITE":"AFETR","OBJECT_ID":"2021-005AD","MEAN_ANOMALY":"262.1038","FILE":"3565505","CENTER_NAME":"EARTH","MEAN_MOTION_DDOT":"0.0000000000000","COUNTRY_CODE":"US","ECCENTRICITY":"0.00012090","GP_ID":"212166732","BSTAR":"0.00003538100000","ELEMENT_SET_NO":"999","OBJECT_TYPE":"PAYLOAD","OBJECT_NAME":"STARLINK-2096","APOAPSIS":"548.059","PERIOD":"95.592","TLE_LINE2":"2 47376  53.0568  34.3507 0001209  98.0088 262.1038 15.06397392 90560","TLE_LINE1":"1 47376U 21005AD  22252.67672025  .00000246  00000-0  35381-4 0  9999","REV_AT_EPOCH":"9056","SEMIMAJOR_AXIS":"6925.357","NORAD_CAT_ID":"47376","MEAN_MOTION_DOT":"0.00000246","MEAN_MOTION":"15.06397392","MEAN_ELEMENT_THEORY":"SGP4","DECAY_DATE":null,"RA_OF_ASC_NODE":"34.3507","RCS_SIZE":"LARGE","ARG_OF_PERICENTER":"98.0088","TIME_SYSTEM":"UTC"},{"EPOCH":"2022-09-09T19:04:20.044416","CLASSIFICATION_TYPE":"U","PERIAPSIS":"546.310","SITE":"AFETR","REF_FRAME":"TEME","LAUNCH_DATE":"2021-01-20","INCLINATION":"53.0558","EPHEMERIS_TYPE":"0","OBJECT_ID":"2021-005AE","MEAN_ANOMALY":"267.6593","CENTER_NAME":"EARTH","FILE":"3565505","COUNTRY_CODE":"US","ECCENTRICITY":"0.00013140","MEAN_MOTION_DDOT":"0.0000000000000","GP_ID":"212165483","BSTAR":"0.00011420000000","ELEMENT_SET_NO":"999","OBJECT_NAME":"STARLINK-2097","OBJECT_TYPE":"PAYLOAD","APOAPSIS":"548.130","TLE_LINE2":"2 47377  53.0558  33.8268 0001314  92.4546 267.6593 15.06397868 90588","PERIOD":"95.592","TLE_LINE1":"1 47377U 21005AE  22252.79467644  .00001420  00000-0  11420-3 0  9994","NORAD_CAT_ID":"47377","MEAN_MOTION_DOT":"0.00001420","SEMIMAJOR_AXIS":"6925.355","REV_AT_EPOCH":"9058","MEAN_ELEMENT_THEORY":"SGP4","DECAY_DATE":null,"MEAN_MOTION":"15.06397868","TIME_SYSTEM":"UTC","RCS_SIZE":"LARGE","RA_OF_ASC_NODE":"33.8268","ARG_OF_PERICENTER":"92.4546"},{"OBJECT_NAME":"STARLINK-2098","OBJECT_TYPE":"PAYLOAD","BSTAR":"-0.00002988000000","ELEMENT_SET_NO":"999","APOAPSIS":"548.134","NORAD_CAT_ID":"47378","MEAN_MOTION_DOT":"-0.00000726","SEMIMAJOR_AXIS":"6925.375","REV_AT_EPOCH":"9110","PERIOD":"95.593","TLE_LINE2":"2 47378  53.0548 355.0599 0001291  87.7989 272.3147 15.06391474 91100","TLE_LINE1":"1 47378U 21005AF  22252.52191821 -.00000726  00000-0 -29880-4 0  9997","TIME_SYSTEM":"UTC","RCS_SIZE":"LARGE","RA_OF_ASC_NODE":"355.0599","ARG_OF_PERICENTER":"87.7989","DECAY_DATE":null,"MEAN_ELEMENT_THEORY":"SGP4","MEAN_MOTION":"15.06391474","CLASSIFICATION_TYPE":"U","PERIAPSIS":"546.346","EPOCH":"2022-09-09T12:31:33.733344","OBJECT_ID":"2021-005AF","SITE":"AFETR","REF_FRAME":"TEME","LAUNCH_DATE":"2021-01-20","INCLINATION":"53.0548","EPHEMERIS_TYPE":"0","FILE":"3564914","CENTER_NAME":"EARTH","MEAN_ANOMALY":"272.3147","GP_ID":"212127947","COUNTRY_CODE":"US","ECCENTRICITY":"0.00012910","MEAN_MOTION_DDOT":"0.0000000000000"},{"ELEMENT_SET_NO":"999","BSTAR":"0.00010845000000","OBJECT_NAME":"STARLINK-2099","OBJECT_TYPE":"PAYLOAD","APOAPSIS":"548.171","TLE_LINE1":"1 47379U 21005AG  22252.66197800  .00001334  00000-0  10845-3 0  9990","TLE_LINE2":"2 47379  53.0551 354.4320 0001374  80.9493 279.1652 15.06398050 91122","PERIOD":"95.592","MEAN_MOTION_DOT":"0.00001334","NORAD_CAT_ID":"47379","SEMIMAJOR_AXIS":"6925.355","REV_AT_EPOCH":"9112","DECAY_DATE":null,"MEAN_ELEMENT_THEORY":"SGP4","MEAN_MOTION":"15.06398050","TIME_SYSTEM":"UTC","ARG_OF_PERICENTER":"80.9493","RA_OF_ASC_NODE":"354.4320","RCS_SIZE":"LARGE","EPOCH":"2022-09-09T15:53:14.899200","CLASSIFICATION_TYPE":"U","PERIAPSIS":"546.268","SITE":"AFETR","REF_FRAME":"TEME","INCLINATION":"53.0551","LAUNCH_DATE":"2021-01-20","EPHEMERIS_TYPE":"0","OBJECT_ID":"2021-005AG","MEAN_ANOMALY":"279.1652","FILE":"3565505","CENTER_NAME":"EARTH","ECCENTRICITY":"0.00013740","COUNTRY_CODE":"US","MEAN_MOTION_DDOT":"0.0000000000000","GP_ID":"212166484"},{"TLE_LINE1":"1 47380U 21005AH  22252.82324239  .00002026  00000-0  15491-3 0  9999","PERIOD":"95.593","TLE_LINE2":"2 47380  53.0572   3.6869 0001385  79.4107 280.7038 15.06391291 91019","SEMIMAJOR_AXIS":"6925.375","REV_AT_EPOCH":"9101","MEAN_MOTION_DOT":"0.00002026","NORAD_CAT_ID":"47380","MEAN_MOTION":"15.06391291","MEAN_ELEMENT_THEORY":"SGP4","DECAY_DATE":null,"ARG_OF_PERICENTER":"79.4107","RCS_SIZE":"LARGE","RA_OF_ASC_NODE":"3.6869","TIME_SYSTEM":"UTC","BSTAR":"0.00015491000000","ELEMENT_SET_NO":"999","OBJECT_TYPE":"PAYLOAD","OBJECT_NAME":"STARLINK-2100","APOAPSIS":"548.199","MEAN_ANOMALY":"280.7038","FILE":"3565505","CENTER_NAME":"EARTH","MEAN_MOTION_DDOT":"0.0000000000000","ECCENTRICITY":"0.00013850","COUNTRY_CODE":"US","GP_ID":"212167232","EPOCH":"2022-09-09T19:45:28.142496","PERIAPSIS":"546.281","CLASSIFICATION_TYPE":"U","LAUNCH_DATE":"2021-01-20","INCLINATION":"53.0572","EPHEMERIS_TYPE":"0","REF_FRAME":"TEME","SITE":"AFETR","OBJECT_ID":"2021-005AH"},{"OBJECT_ID":"2021-005AJ","SITE":"AFETR","REF_FRAME":"TEME","EPHEMERIS_TYPE":"0","LAUNCH_DATE":"2021-01-20","INCLINATION":"53.0551","CLASSIFICATION_TYPE":"U","PERIAPSIS":"546.137","EPOCH":"2022-09-09T16:57:36.822816","GP_ID":"212165983","COUNTRY_CODE":"US","ECCENTRICITY":"0.00015610","MEAN_MOTION_DDOT":"0.0000000000000","CENTER_NAME":"EARTH","FILE":"3565505","MEAN_ANOMALY":"294.5457","APOAPSIS":"548.299","OBJECT_NAME":"STARLINK-2101","OBJECT_TYPE":"PAYLOAD","ELEMENT_SET_NO":"999","BSTAR":"-0.00001336800000","TIME_SYSTEM":"UTC","RA_OF_ASC_NODE":"9.2984","RCS_SIZE":"LARGE","ARG_OF_PERICENTER":"65.5695","DECAY_DATE":null,"MEAN_ELEMENT_THEORY":"SGP4","MEAN_MOTION":"15.06398540","NORAD_CAT_ID":"47381","MEAN_MOTION_DOT":"-0.00000481","SEMIMAJOR_AXIS":"6925.353","REV_AT_EPOCH":"9092","PERIOD":"95.592","TLE_LINE2":"2 47381  53.0551   9.2984 0001561  65.5695 294.5457 15.06398540 90922","TLE_LINE1":"1 47381U 21005AJ  22252.70667619 -.00000481  00000-0 -13368-4 0  9996"}];
